[{"OBJECT_NAME":"ICEYE-X31","OBJECT_ID":"2023-174AJ","EPOCH":"2026-03-09T23:06:20.433600","MEAN_MOTION":15.30950809,"ECCENTRICITY":0.00015021,"INCLINATION":97.3851,"RA_OF_ASC_NODE":144.9524,"ARG_OF_PERICENTER":332.6589,"MEAN_ANOMALY":27.4572,"EPHEMERIS_TYPE":0,"CLASSIFICATION_TYPE":"U","NORAD_CAT_ID":58288,"ELEMENT_SET_NO":999,"REV_AT_EPOCH":12955,"BSTAR":0.00066288467,"MEAN_MOTION_DOT":0.00019777,"MEAN_MOTION_DDOT":0},{"OBJECT_NAME":"STARLINK-33809","OBJECT_ID":"2025-071R","EPOCH":"2026-03-09T12:10:09.413760","MEAN_MOTION":15.30178871,"ECCENTRICITY":0.00012102,"INCLINATION":53.1583,"RA_OF_ASC_NODE":140.6134,"ARG_OF_PERICENTER":88.6701,"MEAN_ANOMALY":271.4439,"EPHEMERIS_TYPE":0,"CLASSIFICATION_TYPE":"U","NORAD_CAT_ID":63508,"ELEMENT_SET_NO":999,"REV_AT_EPOCH":5268,"BSTAR":0.0011179203,"MEAN_MOTION_DOT":0.00032875,"MEAN_MOTION_DDOT":0}]
